[{"OBJECT_NAME":"IRIDIUM 124","OBJECT_ID":"2017-039H","EPOCH":"2026-03-09T23:29:37.068864","MEAN_MOTION":14.432748,"ECCENTRICITY":0.0002084,"INCLINATION":86.4531,"RA_OF_ASC_NODE":331.8553,"ARG_OF_PERICENTER":84.6213,"MEAN_ANOMALY":275.5226,"EPHEMERIS_TYPE":0,"CLASSIFICATION_TYPE":"U","NORAD_CAT_ID":42810,"ELEMENT_SET_NO":999,"REV_AT_EPOCH":46080,"BSTAR":0.00013794234,"MEAN_MOTION_DOT":4.84e-6,"MEAN_MOTION_DDOT":0},{"OBJECT_NAME":"DMSP 5D-3 F18 DEB","OBJECT_ID":"2009-057E","EPOCH":"2026-03-09T20:13:19.923744","MEAN_MOTION":14.40894313,"ECCENTRICITY":0.00068141,"INCLINATION":98.6331,"RA_OF_ASC_NODE":161.0841,"ARG_OF_PERICENTER":261.6426,"MEAN_ANOMALY":98.399,"EPHEMERIS_TYPE":0,"CLASSIFICATION_TYPE":"U","NORAD_CAT_ID":36099,"ELEMENT_SET_NO":999,"REV_AT_EPOCH":84597,"BSTAR":0.0013771187,"MEAN_MOTION_DOT":4.375e-5,"MEAN_MOTION_DDOT":0}]
